*******************************************************************************
Ephemeris / WWW_USER Mon Mar 10 06:58:33 2025 Pasadena, USA      / Horizons    
*******************************************************************************
Target body name: (2018 WD2)                      {source: JPL#7}
Center body name: Earth (399)                     {source: DE441}
Center-site name: Mauna Kea
*******************************************************************************
Start time      : A.D. 2018-Aug-09 05:04:00.0000 UT      
Stop  time      : A.D. 2018-Aug-09 15:50:00.0000 UT      
Step-size       : 1 minutes
*******************************************************************************
Target pole/equ : undefined
Target radii    : undefined                                                    
Center geodetic : 204.5278, 19.8260847, 4.21024   {E-lon(deg),Lat(deg),Alt(km)}
Center cylindric: 204.5278, 6006.35451, 2151.0229 {E-lon(deg),Dxy(km),Dz(km)}
Center pole/equ : ITRF93                          {East-longitude positive}
Center radii    : 6378.137, 6378.137, 6356.752 km {Equator_a, b, pole_c}       
Target primary  : Sun
Vis. interferer : MOON (R_eq= 1737.400) km        {source: DE441}
Rel. light bend : Sun                             {source: DE441}
Rel. lght bnd GM: 1.3271E+11 km^3/s^2                                          
Small-body perts: Yes                             {source: SB441-N16}
Atmos refraction: NO (AIRLESS)
RA format       : HMS
Time format     : CAL 
Calendar mode   : Mixed Julian/Gregorian
RTS-only print  : NO       
EOP file        : eop.250307.p250603                                           
EOP coverage    : DATA-BASED 1962-JAN-20 TO 2025-MAR-07. PREDICTS-> 2025-JUN-02
Units conversion: 1 au= 149597870.700 km, c= 299792.458 km/s, 1 day= 86400.0 s 
Table cut-offs 1: Elevation (-90.0deg=NO ),Airmass (>38.000=NO), Daylight (YES)
Table cut-offs 2: Solar elongation (  0.0,180.0=NO ),Local Hour Angle( 0.0=NO )
Table cut-offs 3: RA/DEC angular rate (     0.0=NO )                           
*******************************************************************************
Initial IAU76/J2000 heliocentric ecliptic osculating elements (au, days, deg.):
  EPOCH=  2458442.5 ! 2018-Nov-20.00 (TDB)         Residual RMS= .32422        
   EC= .524986067713519    QR= .9778174985080528   TP= 2458471.2675125618      
   OM= 251.0855257113189   W=  198.8561547827716   IN= 2.860917524648221       
  Equivalent ICRF heliocentric cartesian coordinates (au, au/d):
   X= 5.933978759455335E-01  Y= 7.796199626272187E-01  Z= 3.534710331364960E-01
  VX=-1.894544763705440E-02 VY= 7.774789113426014E-03 VZ= 2.252803318104249E-03
Asteroid physical parameters (km, seconds, rotational period in hours):        
   GM= n.a.                RAD= n.a.               ROTPER= n.a.                
   H= 26.2                 G= .150                 B-V= n.a.                   
                           ALBEDO= n.a.            STYP= n.a.                  
*******************************************************************************
 Date__(UT)__HR:MN     R.A._________(ICRF)_________DEC
******************************************************
$$SOE
 2018-Aug-09 13:16     00 43 53.104253 +10 17 54.78024
 2018-Aug-09 13:17     00 43 53.142607 +10 17 55.18443
 2018-Aug-09 13:18     00 43 53.180960 +10 17 55.58860
 2018-Aug-09 13:19     00 43 53.219310 +10 17 55.99273
 2018-Aug-09 13:20     00 43 53.257658 +10 17 56.39684
 2018-Aug-09 13:21     00 43 53.296005 +10 17 56.80091
 2018-Aug-09 13:22     00 43 53.334349 +10 17 57.20496
 2018-Aug-09 13:23     00 43 53.372691 +10 17 57.60897
 2018-Aug-09 13:24     00 43 53.411031 +10 17 58.01295
 2018-Aug-09 13:25     00 43 53.449369 +10 17 58.41691
 2018-Aug-09 13:26     00 43 53.487706 +10 17 58.82083
 2018-Aug-09 13:27     00 43 53.526040 +10 17 59.22472
 2018-Aug-09 13:28     00 43 53.564373 +10 17 59.62858
 2018-Aug-09 13:29     00 43 53.602704 +10 18 00.03242
 2018-Aug-09 13:30     00 43 53.641034 +10 18 00.43622
 2018-Aug-09 13:31     00 43 53.679362 +10 18 00.83999
 2018-Aug-09 13:32     00 43 53.717688 +10 18 01.24373
 2018-Aug-09 13:33     00 43 53.756013 +10 18 01.64744
 2018-Aug-09 13:34     00 43 53.794336 +10 18 02.05112
 2018-Aug-09 13:35     00 43 53.832658 +10 18 02.45477
 2018-Aug-09 13:36     00 43 53.870979 +10 18 02.85839
 2018-Aug-09 13:37     00 43 53.909298 +10 18 03.26197
 2018-Aug-09 13:38     00 43 53.947616 +10 18 03.66553
 2018-Aug-09 13:39     00 43 53.985932 +10 18 04.06906
 2018-Aug-09 13:40     00 43 54.024248 +10 18 04.47256
 2018-Aug-09 13:41     00 43 54.062563 +10 18 04.87602
 2018-Aug-09 13:42     00 43 54.100876 +10 18 05.27946
 2018-Aug-09 13:43     00 43 54.139188 +10 18 05.68286
 2018-Aug-09 13:44     00 43 54.177500 +10 18 06.08624
 2018-Aug-09 13:45     00 43 54.215810 +10 18 06.48958
 2018-Aug-09 13:46     00 43 54.254120 +10 18 06.89289
 2018-Aug-09 13:47     00 43 54.292428 +10 18 07.29618
 2018-Aug-09 13:48     00 43 54.330736 +10 18 07.69943
 2018-Aug-09 13:49     00 43 54.369043 +10 18 08.10265
 2018-Aug-09 13:50     00 43 54.407350 +10 18 08.50584
 2018-Aug-09 13:51     00 43 54.445656 +10 18 08.90900
 2018-Aug-09 13:52     00 43 54.483961 +10 18 09.31213
 2018-Aug-09 13:53     00 43 54.522266 +10 18 09.71523
 2018-Aug-09 13:54     00 43 54.560570 +10 18 10.11830
 2018-Aug-09 13:55  t  00 43 54.598874 +10 18 10.52133
 2018-Aug-09 13:56     00 43 54.637177 +10 18 10.92434
 2018-Aug-09 13:57     00 43 54.675480 +10 18 11.32732
 2018-Aug-09 13:58     00 43 54.713783 +10 18 11.73026
 2018-Aug-09 13:59     00 43 54.752086 +10 18 12.13318
 2018-Aug-09 14:00     00 43 54.790388 +10 18 12.53606
 2018-Aug-09 14:01  m  00 43 54.828690 +10 18 12.93892
 2018-Aug-09 14:02  m  00 43 54.866992 +10 18 13.34174
 2018-Aug-09 14:03  m  00 43 54.905294 +10 18 13.74453
 2018-Aug-09 14:04  m  00 43 54.943596 +10 18 14.14730
 2018-Aug-09 14:05  m  00 43 54.981898 +10 18 14.55003
 2018-Aug-09 14:06  m  00 43 55.020201 +10 18 14.95273
 2018-Aug-09 14:07  m  00 43 55.058503 +10 18 15.35540
 2018-Aug-09 14:08  m  00 43 55.096805 +10 18 15.75804
 2018-Aug-09 14:09  m  00 43 55.135108 +10 18 16.16065
 2018-Aug-09 14:10  m  00 43 55.173411 +10 18 16.56322
 2018-Aug-09 14:11  m  00 43 55.211714 +10 18 16.96577
 2018-Aug-09 14:12  m  00 43 55.250018 +10 18 17.36829
 2018-Aug-09 14:13  m  00 43 55.288322 +10 18 17.77078
 2018-Aug-09 14:14  m  00 43 55.326627 +10 18 18.17323
 2018-Aug-09 14:15  m  00 43 55.364932 +10 18 18.57566
 2018-Aug-09 14:16  m  00 43 55.403238 +10 18 18.97805
 2018-Aug-09 14:17  m  00 43 55.441544 +10 18 19.38042
 2018-Aug-09 14:18  m  00 43 55.479851 +10 18 19.78275
 2018-Aug-09 14:19  m  00 43 55.518159 +10 18 20.18505
 2018-Aug-09 14:20  m  00 43 55.556468 +10 18 20.58733
 2018-Aug-09 14:21  m  00 43 55.594777 +10 18 20.98957
 2018-Aug-09 14:22  m  00 43 55.633087 +10 18 21.39178
 2018-Aug-09 14:23  m  00 43 55.671399 +10 18 21.79396
 2018-Aug-09 14:24  m  00 43 55.709711 +10 18 22.19611
 2018-Aug-09 14:25  m  00 43 55.748024 +10 18 22.59824
 2018-Aug-09 14:26  m  00 43 55.786338 +10 18 23.00033
 2018-Aug-09 14:27  m  00 43 55.824653 +10 18 23.40239
 2018-Aug-09 14:28  m  00 43 55.862970 +10 18 23.80441
 2018-Aug-09 14:29  m  00 43 55.901287 +10 18 24.20641
 2018-Aug-09 14:30  m  00 43 55.939606 +10 18 24.60838
 2018-Aug-09 14:31  m  00 43 55.977927 +10 18 25.01032
 2018-Aug-09 14:32  m  00 43 56.016248 +10 18 25.41223
 2018-Aug-09 14:33  m  00 43 56.054571 +10 18 25.81411
 2018-Aug-09 14:34  m  00 43 56.092896 +10 18 26.21595
 2018-Aug-09 14:35  m  00 43 56.131222 +10 18 26.61777
 2018-Aug-09 14:36  m  00 43 56.169549 +10 18 27.01956
 2018-Aug-09 14:37  m  00 43 56.207878 +10 18 27.42131
 2018-Aug-09 14:38  m  00 43 56.246209 +10 18 27.82304
 2018-Aug-09 14:39  m  00 43 56.284541 +10 18 28.22474
 2018-Aug-09 14:40  m  00 43 56.322876 +10 18 28.62640
 2018-Aug-09 14:41  m  00 43 56.361212 +10 18 29.02804
 2018-Aug-09 14:42  m  00 43 56.399549 +10 18 29.42965
 2018-Aug-09 14:43 Am  00 43 56.437889 +10 18 29.83122
 2018-Aug-09 14:44 Am  00 43 56.476231 +10 18 30.23277
 2018-Aug-09 14:45 Am  00 43 56.514574 +10 18 30.63428
 2018-Aug-09 14:46 Am  00 43 56.552920 +10 18 31.03577
 2018-Aug-09 14:47 Am  00 43 56.591267 +10 18 31.43723
 2018-Aug-09 14:48 Am  00 43 56.629617 +10 18 31.83865
 2018-Aug-09 14:49 Am  00 43 56.667969 +10 18 32.24005
 2018-Aug-09 14:50 Am  00 43 56.706323 +10 18 32.64141
 2018-Aug-09 14:51 Am  00 43 56.744680 +10 18 33.04275
 2018-Aug-09 14:52 Am  00 43 56.783038 +10 18 33.44406
 2018-Aug-09 14:53 Am  00 43 56.821399 +10 18 33.84533
 2018-Aug-09 14:54 Am  00 43 56.859763 +10 18 34.24658
 2018-Aug-09 14:55 Am  00 43 56.898129 +10 18 34.64780
 2018-Aug-09 14:56 Am  00 43 56.936497 +10 18 35.04899
 2018-Aug-09 14:57 Am  00 43 56.974868 +10 18 35.45014
 2018-Aug-09 14:58 Am  00 43 57.013242 +10 18 35.85127
 2018-Aug-09 14:59 Am  00 43 57.051618 +10 18 36.25237
 2018-Aug-09 15:00 Am  00 43 57.089997 +10 18 36.65344
 2018-Aug-09 15:01 Am  00 43 57.128379 +10 18 37.05448
 2018-Aug-09 15:02 Am  00 43 57.166763 +10 18 37.45549
 2018-Aug-09 15:03 Am  00 43 57.205150 +10 18 37.85647
 2018-Aug-09 15:04 Am  00 43 57.243540 +10 18 38.25742
 2018-Aug-09 15:05 Am  00 43 57.281933 +10 18 38.65834
 2018-Aug-09 15:06 Am  00 43 57.320329 +10 18 39.05924
 2018-Aug-09 15:07 Am  00 43 57.358728 +10 18 39.46010
 2018-Aug-09 15:08 Am  00 43 57.397130 +10 18 39.86093
 2018-Aug-09 15:09 Am  00 43 57.435535 +10 18 40.26174
 2018-Aug-09 15:10 Am  00 43 57.473944 +10 18 40.66251
 2018-Aug-09 15:11 Nm  00 43 57.512355 +10 18 41.06326
 2018-Aug-09 15:12 Nm  00 43 57.550770 +10 18 41.46398
 2018-Aug-09 15:13 Nm  00 43 57.589188 +10 18 41.86466
 2018-Aug-09 15:14 Nm  00 43 57.627610 +10 18 42.26532
 2018-Aug-09 15:15 Nm  00 43 57.666034 +10 18 42.66595
 2018-Aug-09 15:16 Nm  00 43 57.704462 +10 18 43.06655
 2018-Aug-09 15:17 Nm  00 43 57.742894 +10 18 43.46713
 2018-Aug-09 15:18 Nm  00 43 57.781329 +10 18 43.86767
